*******************************************************************************
Ephemeris / WWW_USER Tue Mar 11 05:30:29 2025 Pasadena, USA      / Horizons    
*******************************************************************************
Target body name: (2018 RY7)                      {source: JPL#20}
Center body name: Earth (399)                     {source: DE441}
Center-site name: Gemini South Obs., Cerro Pachon
*******************************************************************************
Start time      : A.D. 2018-Sep-05 22:38:00.0000 UT      
Stop  time      : A.D. 2018-Sep-06 10:44:00.0000 UT      
Step-size       : 1 minutes
*******************************************************************************
Target pole/equ : undefined
Target radii    : undefined                                                    
Center geodetic : 289.2634, -30.2406227, 2.71233  {E-lon(deg),Lat(deg),Alt(km)}
Center cylindric: 289.2634,5517.21435,-3194.81213 {E-lon(deg),Dxy(km),Dz(km)}
Center pole/equ : ITRF93                          {East-longitude positive}
Center radii    : 6378.137, 6378.137, 6356.752 km {Equator_a, b, pole_c}       
Target primary  : Sun
Vis. interferer : MOON (R_eq= 1737.400) km        {source: DE441}
Rel. light bend : Sun                             {source: DE441}
Rel. lght bnd GM: 1.3271E+11 km^3/s^2                                          
Small-body perts: Yes                             {source: SB441-N16}
Atmos refraction: NO (AIRLESS)
RA format       : HMS
Time format     : CAL 
Calendar mode   : Mixed Julian/Gregorian
RTS-only print  : NO       
EOP file        : eop.250310.p250606                                           
EOP coverage    : DATA-BASED 1962-JAN-20 TO 2025-MAR-10. PREDICTS-> 2025-JUN-05
Units conversion: 1 au= 149597870.700 km, c= 299792.458 km/s, 1 day= 86400.0 s 
Table cut-offs 1: Elevation (-90.0deg=NO ),Airmass (>38.000=NO), Daylight (YES)
Table cut-offs 2: Solar elongation (  0.0,180.0=NO ),Local Hour Angle( 0.0=NO )
Table cut-offs 3: RA/DEC angular rate (     0.0=NO )                           
*******************************************************************************
Initial IAU76/J2000 heliocentric ecliptic osculating elements (au, days, deg.):
  EPOCH=  2458422.5 ! 2018-Oct-31.00 (TDB)         Residual RMS= .22459        
   EC= .1470549687381346   QR= .8667733479166969   TP= 2458516.8896767548      
   OM= 2.838668085760325   W=  136.9006026425241   IN= 13.35135890147074       
  Equivalent ICRF heliocentric cartesian coordinates (au, au/d):
   X= 8.791791513870114E-01  Y= 4.508422091141234E-01  Z= 3.244113040133835E-01
  VX=-1.085418916943652E-02 VY= 1.006005810562689E-02 VZ= 7.673980932675997E-03
Asteroid physical parameters (km, seconds, rotational period in hours):        
   GM= n.a.                RAD= n.a.               ROTPER= n.a.                
   H= 24.4                 G= .150                 B-V= n.a.                   
                           ALBEDO= n.a.            STYP= n.a.                  
*******************************************************************************
 Date__(UT)__HR:MN     R.A._________(ICRF)_________DEC
******************************************************
$$SOE
 2018-Sep-06 04:47     01 45 28.458491 -14 41 58.14078
 2018-Sep-06 04:48     01 45 28.354001 -14 41 57.04035
 2018-Sep-06 04:49     01 45 28.249468 -14 41 55.93972
 2018-Sep-06 04:50     01 45 28.144892 -14 41 54.83889
 2018-Sep-06 04:51     01 45 28.040273 -14 41 53.73784
 2018-Sep-06 04:52     01 45 27.935612 -14 41 52.63659
 2018-Sep-06 04:53     01 45 27.830908 -14 41 51.53513
 2018-Sep-06 04:54     01 45 27.726162 -14 41 50.43345
 2018-Sep-06 04:55     01 45 27.621374 -14 41 49.33157
 2018-Sep-06 04:56     01 45 27.516544 -14 41 48.22948
 2018-Sep-06 04:57     01 45 27.411672 -14 41 47.12717
 2018-Sep-06 04:58     01 45 27.306759 -14 41 46.02466
 2018-Sep-06 04:59     01 45 27.201805 -14 41 44.92193
 2018-Sep-06 05:00     01 45 27.096810 -14 41 43.81899
 2018-Sep-06 05:01     01 45 26.991774 -14 41 42.71583
 2018-Sep-06 05:02     01 45 26.886697 -14 41 41.61246
 2018-Sep-06 05:03     01 45 26.781580 -14 41 40.50887
 2018-Sep-06 05:04     01 45 26.676423 -14 41 39.40507
 2018-Sep-06 05:05     01 45 26.571226 -14 41 38.30106
 2018-Sep-06 05:06     01 45 26.465989 -14 41 37.19682
 2018-Sep-06 05:07     01 45 26.360712 -14 41 36.09237
 2018-Sep-06 05:08     01 45 26.255396 -14 41 34.98771
 2018-Sep-06 05:09     01 45 26.150041 -14 41 33.88282
 2018-Sep-06 05:10     01 45 26.044647 -14 41 32.77772
 2018-Sep-06 05:11     01 45 25.939214 -14 41 31.67239
 2018-Sep-06 05:12     01 45 25.833742 -14 41 30.56685
 2018-Sep-06 05:13     01 45 25.728232 -14 41 29.46108
 2018-Sep-06 05:14     01 45 25.622684 -14 41 28.35510
 2018-Sep-06 05:15     01 45 25.517098 -14 41 27.24889
 2018-Sep-06 05:16     01 45 25.411474 -14 41 26.14247
 2018-Sep-06 05:17     01 45 25.305813 -14 41 25.03582
 2018-Sep-06 05:18     01 45 25.200115 -14 41 23.92894
 2018-Sep-06 05:19     01 45 25.094379 -14 41 22.82185
 2018-Sep-06 05:20     01 45 24.988607 -14 41 21.71453
 2018-Sep-06 05:21     01 45 24.882798 -14 41 20.60698
 2018-Sep-06 05:22     01 45 24.776952 -14 41 19.49921
 2018-Sep-06 05:23     01 45 24.671071 -14 41 18.39122
 2018-Sep-06 05:24     01 45 24.565153 -14 41 17.28300
 2018-Sep-06 05:25     01 45 24.459199 -14 41 16.17455
 2018-Sep-06 05:26     01 45 24.353210 -14 41 15.06588
 2018-Sep-06 05:27     01 45 24.247186 -14 41 13.95697
 2018-Sep-06 05:28     01 45 24.141126 -14 41 12.84784
 2018-Sep-06 05:29     01 45 24.035032 -14 41 11.73849
 2018-Sep-06 05:30     01 45 23.928903 -14 41 10.62890
 2018-Sep-06 05:31     01 45 23.822739 -14 41 09.51909
 2018-Sep-06 05:32     01 45 23.716541 -14 41 08.40904
 2018-Sep-06 05:33     01 45 23.610309 -14 41 07.29877
 2018-Sep-06 05:34     01 45 23.504044 -14 41 06.18826
 2018-Sep-06 05:35     01 45 23.397745 -14 41 05.07752
 2018-Sep-06 05:36     01 45 23.291412 -14 41 03.96656
 2018-Sep-06 05:37     01 45 23.185046 -14 41 02.85536
 2018-Sep-06 05:38     01 45 23.078647 -14 41 01.74392
 2018-Sep-06 05:39     01 45 22.972216 -14 41 00.63226
 2018-Sep-06 05:40     01 45 22.865752 -14 40 59.52036
 2018-Sep-06 05:41     01 45 22.759256 -14 40 58.40823
 2018-Sep-06 05:42     01 45 22.652728 -14 40 57.29586
 2018-Sep-06 05:43     01 45 22.546168 -14 40 56.18326
 2018-Sep-06 05:44     01 45 22.439577 -14 40 55.07043
 2018-Sep-06 05:45     01 45 22.332954 -14 40 53.95735
 2018-Sep-06 05:46     01 45 22.226300 -14 40 52.84405
 2018-Sep-06 05:47     01 45 22.119616 -14 40 51.73050
 2018-Sep-06 05:48     01 45 22.012900 -14 40 50.61673
 2018-Sep-06 05:49     01 45 21.906155 -14 40 49.50271
 2018-Sep-06 05:50     01 45 21.799379 -14 40 48.38846
 2018-Sep-06 05:51     01 45 21.692573 -14 40 47.27396
 2018-Sep-06 05:52     01 45 21.585737 -14 40 46.15923
 2018-Sep-06 05:53     01 45 21.478872 -14 40 45.04427
 2018-Sep-06 05:54     01 45 21.371978 -14 40 43.92906
 2018-Sep-06 05:55     01 45 21.265054 -14 40 42.81361
 2018-Sep-06 05:56     01 45 21.158102 -14 40 41.69793
 2018-Sep-06 05:57     01 45 21.051122 -14 40 40.58200
 2018-Sep-06 05:58     01 45 20.944113 -14 40 39.46583
 2018-Sep-06 05:59     01 45 20.837076 -14 40 38.34943
 2018-Sep-06 06:00     01 45 20.730011 -14 40 37.23278
 2018-Sep-06 06:01     01 45 20.622918 -14 40 36.11589
 2018-Sep-06 06:02     01 45 20.515798 -14 40 34.99876
 2018-Sep-06 06:03     01 45 20.408651 -14 40 33.88138
 2018-Sep-06 06:04     01 45 20.301477 -14 40 32.76377
 2018-Sep-06 06:05     01 45 20.194277 -14 40 31.64591
 2018-Sep-06 06:06     01 45 20.087050 -14 40 30.52781
 2018-Sep-06 06:07     01 45 19.979796 -14 40 29.40946
 2018-Sep-06 06:08     01 45 19.872517 -14 40 28.29087
 2018-Sep-06 06:09     01 45 19.765212 -14 40 27.17204
 2018-Sep-06 06:10     01 45 19.657882 -14 40 26.05296
 2018-Sep-06 06:11     01 45 19.550526 -14 40 24.93364
 2018-Sep-06 06:12     01 45 19.443146 -14 40 23.81407
 2018-Sep-06 06:13     01 45 19.335740 -14 40 22.69426
 2018-Sep-06 06:14     01 45 19.228311 -14 40 21.57420
 2018-Sep-06 06:15     01 45 19.120856 -14 40 20.45389
 2018-Sep-06 06:16     01 45 19.013378 -14 40 19.33334
 2018-Sep-06 06:17     01 45 18.905876 -14 40 18.21254
 2018-Sep-06 06:18     01 45 18.798351 -14 40 17.09149
 2018-Sep-06 06:19     01 45 18.690802 -14 40 15.97020
 2018-Sep-06 06:20     01 45 18.583230 -14 40 14.84866
 2018-Sep-06 06:21     01 45 18.475636 -14 40 13.72687
 2018-Sep-06 06:22     01 45 18.368018 -14 40 12.60484
 2018-Sep-06 06:23     01 45 18.260379 -14 40 11.48255
 2018-Sep-06 06:24     01 45 18.152717 -14 40 10.36002
 2018-Sep-06 06:25     01 45 18.045034 -14 40 09.23724
 2018-Sep-06 06:26     01 45 17.937329 -14 40 08.11421
 2018-Sep-06 06:27     01 45 17.829602 -14 40 06.99093
 2018-Sep-06 06:28     01 45 17.721855 -14 40 05.86740
 2018-Sep-06 06:29     01 45 17.614086 -14 40 04.74362
 2018-Sep-06 06:30     01 45 17.506297 -14 40 03.61959
 2018-Sep-06 06:31     01 45 17.398488 -14 40 02.49531
 2018-Sep-06 06:32     01 45 17.290659 -14 40 01.37078
 2018-Sep-06 06:33     01 45 17.182809 -14 40 00.24600
 2018-Sep-06 06:34     01 45 17.074940 -14 39 59.12097
 2018-Sep-06 06:35     01 45 16.967052 -14 39 57.99569
 2018-Sep-06 06:36     01 45 16.859145 -14 39 56.87015
 2018-Sep-06 06:37     01 45 16.751218 -14 39 55.74436
 2018-Sep-06 06:38     01 45 16.643273 -14 39 54.61833
 2018-Sep-06 06:39     01 45 16.535310 -14 39 53.49204
 2018-Sep-06 06:40     01 45 16.427329 -14 39 52.36549
 2018-Sep-06 06:41     01 45 16.319329 -14 39 51.23870
 2018-Sep-06 06:42     01 45 16.211312 -14 39 50.11165
 2018-Sep-06 06:43     01 45 16.103278 -14 39 48.98435
 2018-Sep-06 06:44     01 45 15.995227 -14 39 47.85679
 2018-Sep-06 06:45     01 45 15.887158 -14 39 46.72899
 2018-Sep-06 06:46     01 45 15.779073 -14 39 45.60093
 2018-Sep-06 06:47     01 45 15.670972 -14 39 44.47261
 2018-Sep-06 06:48     01 45 15.562855 -14 39 43.34404
 2018-Sep-06 06:49     01 45 15.454721 -14 39 42.21522
